CUTE-1 (CO-55)          
1 27844U 03031E   26116.75556575  .00000331  00000+0  16208-3 0  9999
2 27844  98.6757 125.9591 0009078 342.2770  17.8091 14.24302739184352
CUBESAT XI-IV (CO-57)   
1 27848U 03031J   26116.50745738  .00000273  00000+0  13914-3 0  9993
2 27848  98.6789 125.4683 0009403   1.8754 358.2459 14.23592208184025
CUBESAT XI-V            
1 28895U 05043F   26116.69297964  .00001586  00000+0  25776-3 0  9991
2 28895  98.2925 271.2553 0014225  14.3495 345.8113 14.72492449 94176
CUTE-1.7+APD II (CO-65) 
1 32785U 08021C   26116.86476890  .00006465  00000+0  41321-3 0  9994
2 32785  97.8255  97.2453 0008384 190.9806 169.1240 15.08956703977458
CANX-2                  
1 32790U 08021H   26116.50965497  .00003961  00000+0  28169-3 0  9990
2 32790  97.8603  95.3094 0009410 210.8637 149.2037 15.05234993977030
SEEDS II (CO-66)        
1 32791U 08021J   26116.72639418  .00022770  00000+0  76219-3 0  9994
2 32791  97.7529 112.2424 0004971 114.0529 246.1231 15.30959981979411
SWISSCUBE               
1 35932U 09051B   26116.71696093  .00001169  00000+0  24105-3 0  9995
2 35932  98.4066  23.7054 0007358  23.3426 336.8108 14.62378414881636
BEESAT-1                
1 35933U 09051C   26116.69989417  .00000986  00000+0  20802-3 0  9994
2 35933  98.3995  23.4304 0006112  38.3202 321.8431 14.61633310881661
ITUPSAT1                
1 35935U 09051E   26116.71435405  .00000902  00000+0  19660-3 0  9990
2 35935  98.4081  22.6910 0008454  45.2034 314.9852 14.60360188881226
TISAT 1                 
1 36799U 10035E   26116.80059513  .00026572  00000+0  92327-3 0  9997
2 36799  98.0678  58.8848 0004610  79.1302 281.0455 15.29721207859843
AEROCUBE 4.5A           
1 38767U 12048K   26116.64435773  .00171592  00000+0  12004-2 0  9994
2 38767  64.6325 211.7963 0025085 214.3094 145.6438 15.73067408364501
STRAND-1                
1 39090U 13009E   26116.46574296  .00000307  00000+0  11755-3 0  9994
2 39090  98.3914 297.9758 0009220  32.9650 327.2110 14.37131572689634
BRITE-AUSTRIA           
1 39091U 13009F   26116.73508403  .00000199  00000+0  82263-4 0  9994
2 39091  98.3986 297.4470 0010900  39.5143 320.6837 14.36520770689664
NEE-01 PEGASO           
1 39151U 13018B   26116.34317931  .00003094  00000+0  30016-3 0  9997
2 39151  98.1150 258.8120 0012006 340.5128  19.5630 14.93400500702967
POPACS 2                
1 39269U 13055E   26116.69025801  .00018282  00000+0  31275-3 0  9991
2 39269  80.9936 203.0851 0421985 359.3703   0.6918 14.89936142655540
POPACS 3                
1 39270U 13055F   26116.42109501  .00010839  00000+0  26256-3 0  9997
2 39270  81.0001 285.2683 0555562 227.4520 127.8506 14.54843912631029
ZACUBE-1 (TSHEPISOSAT)  
1 39417U 13066B   26116.87586218  .00005604  00000+0  43768-3 0  9996
2 39417  97.8120  78.9374 0044121  64.7219 295.8566 15.00754252673033
